
# C41 (GNSS)
1 44864U 19090A   25239.47843139 -.00000037  00000+0  00000+0 0  9994
2 44864  56.2980  72.5169 0015635 288.8663 248.3670  1.86231830 38765

# C42 (GNSS)
1 44865U 19090B   25239.34528906 -.00000037  00000+0  00000+0 0  9993
2 44865  56.2993  72.5554 0013218 304.6344 232.9584  1.86231755 38743

# C60 (GNSS)
1 45344U 20017A   25239.68712184 -.00000134  00000+0  00000+0 0  9995
2 45344   2.7987  41.7045 0001658 254.6232   7.2105  1.00241665 20316

# C61 (GNSS)
1 45807U 20040A   25239.55045170 -.00000355  00000+0  00000+0 0  9990
2 45807   1.7273  65.3518 0004330 337.0600 242.3392  1.00271682 19128

# C62 (GNSS)
1 56564U 23066A   25239.62300672 -.00000112  00000+0  00000+0 0  9993
2 56564   1.0594 295.1672 0006323 204.6582 220.5908  1.00273074  8457

# C50 (GNSS)
1 58654U 23207A   25239.04677214 -.00000039  00000+0  00000+0 0  9995
2 58654  55.4868  72.2451 0000946  27.4604 332.6040  1.86230023 11363

# E24 (GNSS)
1 40889U 15045A   25237.01107359  .00000027  00000+0  00000+0 0  9996
2 40889  55.0455 229.7850 0003231  11.2267 348.7600  1.70473403 61965

# E30 (GNSS)
1 40890U 15045B   25238.40490809  .00000034  00000+0  00000+0 0  9995
2 40890  55.0444 229.7417 0001944 333.4267  26.5421  1.70473442 62014

# E07 (GNSS)
1 41859U 16069A   25235.93435793 -.00000006  00000+0  00000+0 0  9994
2 41859  55.3112 109.3194 0003254 337.9170  22.1646  1.70473718 54331

# E08 (GNSS)
1 41175U 15079B   25238.20740364 -.00000006  00000+0  00000+0 0  9991
2 41175  55.6428 109.3581 0003030   5.5606 354.5387  1.70473701 60163

# E09 (GNSS)
1 41174U 15079A   25239.16048297 -.00000007  00000+0  00000+0 0  9993
2 41174  55.6449 109.3347 0003766 353.0341   7.0544  1.70473976 59761

# E01 (GNSS)
1 41550U 16030B   25237.41516048  .00000029  00000+0  00000+0 0  9992
2 41550  55.1941 229.8257 0004316 244.6866 115.2478  1.70473778 57629

# E02 (GNSS)
1 41549U 16030A   25237.74403409  .00000031  00000+0  00000+0 0  9995
2 41549  55.1939 229.8184 0003376 317.1135  42.8389  1.70473467 57635

# E03 (GNSS)
1 41860U 16069B   25235.20156540 -.00000007  00000+0  00000+0 0  9997
2 41860  55.3084 109.3352 0003545  20.9770 339.1311  1.70473972 54573

# E04 (GNSS)
1 41861U 16069C   25237.32910709 -.00000006  00000+0  00000+0 0  9997
2 41861  55.3119 109.2837 0002404 315.0102  45.0670  1.70474393 54478

# E05 (GNSS)
1 41862U 16069D   25239.23470516 -.00000007  00000+0  00000+0 0  9998
2 41862  55.3115 109.2239 0001501 349.9529  10.1375  1.70474048 54637

# E21 (GNSS)
1 43055U 17079A   25239.13761103  .00000039  00000+0  00000+0 0  9994
2 43055  55.1712 229.5957 0003541 266.2236  93.7157  1.70474219 47973

# E25 (GNSS)
1 43056U 17079B   25238.25580389  .00000033  00000+0  00000+0 0  9996
2 43056  55.1717 229.6200 0004829 276.3866  83.5369  1.70474351 47971

# E27 (GNSS)
1 43057U 17079C   25238.47646143  .00000035  00000+0  00000+0 0  9994
2 43057  55.1695 229.6119 0004101 288.5665  71.3676  1.70474273 47969

# E31 (GNSS)
1 43058U 17079D   25239.28312062  .00000039  00000+0  00000+0 0  9999
2 43058  55.1697 229.5876 0005275 273.5040  86.4157  1.70474272 48001

# E36 (GNSS)
1 43566U 18060C   25239.03978185 -.00000106  00000+0  00000+0 0  9997
2 43566  57.2573 349.7317 0002816 268.3917  91.5938  1.70476352 44178

# E13 (GNSS)
1 43567U 18060D   25238.67407150 -.00000107  00000+0  00000+0 0  9997
2 43567  57.2573 349.7413 0003182 266.5465  93.4338  1.70476364 44157

# E15 (GNSS)
1 43564U 18060A   25236.25298430 -.00000112  00000+0  00000+0 0  9991
2 43564  57.2550 349.8021 0003689 265.5438  94.4229  1.70476302 44103

# E33 (GNSS)
1 43565U 18060B   25238.81851065 -.00000107  00000+0  00000+0 0  9999
2 43565  57.2582 349.7359 0004022 231.2774 128.7039  1.70476090 44190

# E34 (GNSS)
1 49809U 21116A   25236.76552407 -.00000111  00000+0  00000+0 0  9997
2 49809  57.2465 349.6839 0003497 205.8022 153.5399  1.70476422 23121

# E10 (GNSS)
1 49810U 21116B   25239.53961683 -.00000105  00000+0  00000+0 0  9990
2 49810  57.2473 349.6082 0002887 200.3719 174.0691  1.70476622 23201

# R01 (GNSS)
1 36111U 09070A   25239.36239730 -.00000007  00000+0  00000+0 0  9998
2 36111  64.8366  81.0080 0002241 349.2468 213.4488  2.13103816122166

# R02 (GNSS)
1 39155U 13019A   25239.15455272 -.00000004  00000+0  00000+0 0  9992
2 39155  65.2541  83.4840 0022261 227.8721 132.0111  2.13104653 96017

# R03 (GNSS)
1 37867U 11064A   25239.47796037 -.00000006  00000+0  00000+0 0  9992
2 37867  65.1008  82.7992 0021762 231.9740 328.6174  2.13101606107508

# R04 (GNSS)
1 44850U 19088A   25236.92547711  .00000009  00000+0  00000+0 0  9998
2 44850  65.3983  83.6299 0011530 249.9105 110.0459  2.13102054 44404

# R05 (GNSS)
1 43508U 18053A   25237.45029073  .00000005  00000+0  00000+0 0  9999
2 43508  65.4111  83.7836 0006806 217.5265 142.5050  2.13102242 55973

# R06 (GNSS)
1 36112U 09070B   25237.28225280  .00000003  00000+0  00000+0 0  9998
2 36112  64.8210  80.9290 0005472 132.5847  44.4474  2.13101226122125

# R07 (GNSS)
1 37868U 11064B   25239.44738244 -.00000006  00000+0  00000+0 0  9996
2 37868  65.1073  82.8770 0018843 232.4470 125.0618  2.13103079107494

# R08 (GNSS)
1 37869U 11064C   25239.30670457 -.00000005  00000+0  00000+0 0  9992
2 37869  65.1142  82.9006 0023691 248.6620 317.3673  2.13101904107502

# R09 (GNSS)
1 40315U 14075A   25238.60571868  .00000036  00000+0  00000+0 0  9998
2 40315  63.6178 200.5679 0021564 211.0602 148.7886  2.13101451 83578

# R10 (GNSS)
1 32395U 07065C   25239.27418427  .00000045  00000+0  00000+0 0  9993
2 32395  64.3269 201.8969 0016910 355.4208 116.7582  2.13100119137462

# R11 (GNSS)
1 46805U 20075A   25238.24691263  .00000034  00000+0  00000+0 0  9995
2 46805  64.5994 202.3167 0008731 239.9369 119.9515  2.13100026 37627

# R12 (GNSS)
1 44299U 19030A   25236.11529977  .00000011  00000+0  00000+0 0  9990
2 44299  64.3690 202.6174 0012988 277.7073 197.5501  2.13102212 48599

# R13 (GNSS)
1 32393U 07065A   25239.37053553  .00000045  00000+0  00000+0 0  9997
2 32393  64.3184 201.8245 0000866  13.6669  38.8721  2.13101345137517

# R14 (GNSS)
1 42939U 17055A   25239.36672192  .00000045  00000+0  00000+0 0  9999
2 42939  64.0796 201.8833 0009955 240.0805 119.8000  2.13102002 61718

# R15 (GNSS)
1 43687U 18086A   25238.01707500  .00000031  00000+0  00000+0 0  9993
2 43687  64.2956 202.5591 0011262 257.9337 101.9140  2.13102034 52991

# R16 (GNSS)
1 54377U 22161A   25237.60733667  .00000026  00000+0  00000+0 0  9991
2 54377  64.7411 202.5210 0011379 223.5274 136.3556  2.13102095 21330

# R17 (GNSS)
1 41330U 16008A   25239.52823968 -.00000074  00000+0  00000+0 0  9990
2 41330  65.1921 323.0766 0012928 207.8259 152.1636  2.13102727 74368

# R18 (GNSS)
1 39620U 14012A   25239.11250516 -.00000074  00000+0  00000+0 0  9990
2 39620  65.4652 323.9215 0011387 310.5739  49.3848  2.13103319 88974

# R19 (GNSS)
1 54031U 22130A   25237.29365529 -.00000074  00000+0  00000+0 0  9991
2 54031  64.4408 324.9929 0013084 185.0074 175.0334  2.13101705 22388

# R20 (GNSS)
1 32276U 07052B   25237.82753609 -.00000074  00000+0  00000+0 0  9993
2 32276  65.7548 325.9860 0008321 312.1254  50.4173  2.13103195138795

# R21 (GNSS)
1 40001U 14032A   25237.87835891 -.00000072  00000+0  00000+0 0  9991
2 40001  65.4019 323.7340 0008885 200.2578 159.7638  2.13105996 87164

# R22 (GNSS)
1 52984U 22075A   25239.35179196 -.00000077  00000+0  00000+0 0  9999
2 52984  64.4670 324.8275 0012233 271.1985  88.7178  2.13102302 24450

# R23 (GNSS)
1 36402U 10007C   25239.12426956 -.00000074  00000+0  00000+0 0  9999
2 36402  65.5865 324.4078 0001963 201.2208 306.7711  2.13106332120463

# R24 (GNSS)
1 45358U 20018A   25238.06015081 -.00000073  00000+0  00000+0 0  9996
2 45358  64.5298 322.7819 0011027 235.3087 124.6455  2.13102579 42375

# R25 (GNSS)
1 32275U 07052A   25237.28308372 -.00000073  00000+0  00000+0 0  9994
2 32275  65.7394 325.8821 0004747 221.6127 138.4042  2.13104195138759
